{
  "type": "FeatureCollection",
  "features": [
    {
      "type": "Feature",
      "geometry": {
        "type": "Polygon",
        "coordinates": [
          [
            [
              127.1246,
              37.489956
            ],
            [
              127.124768,
              37.490048
            ],
            [
              127.124892,
              37.489897
            ],
            [
              127.124867,
              37.489883
            ],
            [
              127.124724,
              37.489805
            ],
            [
              127.1246,
              37.489956
            ]
          ]
        ]
      },
      "properties": {
        "layer": "지적",
        "label": "28-7대"
      }
    },
    {
      "type": "Feature",
      "geometry": {
        "type": "Polygon",
        "coordinates": [
          [
            [
              127.124867,
              37.489883
            ],
            [
              127.124887,
              37.489859
            ],
            [
              127.124932,
              37.489766
            ],
            [
              127.124819,
              37.489738
            ],
            [
              127.124792,
              37.489723
            ],
            [
              127.124724,
              37.489805
            ],
            [
              127.124867,
              37.489883
            ]
          ]
        ]
      },
      "properties": {
        "layer": "지적",
        "label": "28-12대"
      }
    },
    {
      "type": "Feature",
      "geometry": {
        "type": "Polygon",
        "coordinates": [
          [
            [
              127.124768,
              37.490048
            ],
            [
              127.124957,
              37.490151
            ],
            [
              127.125081,
              37.490001
            ],
            [
              127.125,
              37.489956
            ],
            [
              127.124892,
              37.489897
            ],
            [
              127.124768,
              37.490048
            ]
          ]
        ]
      },
      "properties": {
        "layer": "지적",
        "label": "28-6대"
      }
    },
    {
      "type": "Feature",
      "geometry": {
        "type": "Polygon",
        "coordinates": [
          [
            [
              127.125,
              37.489956
            ],
            [
              127.125065,
              37.489798
            ],
            [
              127.124932,
              37.489766
            ],
            [
              127.124887,
              37.489859
            ],
            [
              127.124867,
              37.489883
            ],
            [
              127.124892,
              37.489897
            ],
            [
              127.125,
              37.489956
            ]
          ]
        ]
      },
      "properties": {
        "layer": "지적",
        "label": "28-13대"
      }
    },
    {
      "type": "Feature",
      "geometry": {
        "type": "Polygon",
        "coordinates": [
          [
            [
              127.124429,
              37.489862
            ],
            [
              127.124514,
              37.489909
            ],
            [
              127.124638,
              37.489758
            ],
            [
              127.124552,
              37.489711
            ],
            [
              127.124429,
              37.489862
            ]
          ]
        ]
      },
      "properties": {
        "layer": "지적",
        "label": "28-31대"
      }
    },
    {
      "type": "Feature",
      "geometry": {
        "type": "Polygon",
        "coordinates": [
          [
            [
              127.1246,
              37.489956
            ],
            [
              127.124724,
              37.489805
            ],
            [
              127.124638,
              37.489758
            ],
            [
              127.124514,
              37.489909
            ],
            [
              127.1246,
              37.489956
            ]
          ]
        ]
      },
      "properties": {
        "layer": "지적",
        "label": "28-8대"
      }
    },
    {
      "type": "Feature",
      "geometry": {
        "type": "Polygon",
        "coordinates": [
          [
            [
              127.125231,
              37.489839
            ],
            [
              127.125423,
              37.489887
            ],
            [
              127.125471,
              37.489829
            ],
            [
              127.125558,
              37.489722
            ],
            [
              127.125592,
              37.489717
            ],
            [
              127.125513,
              37.489673
            ],
            [
              127.12552,
              37.489701
            ],
            [
              127.125458,
              37.489777
            ],
            [
              127.125415,
              37.489828
            ],
            [
              127.125383,
              37.489838
            ],
            [
              127.125252,
              37.489806
            ],
            [
              127.12509,
              37.489766
            ],
            [
              127.124942,
              37.489729
            ],
            [
              127.124884,
              37.489715
            ],
            [
              127.124861,
              37.489709
            ],
            [
              127.12484,
              37.489704
            ],
            [
              127.124686,
              37.48962
            ],
            [
              127.124581,
              37.489563
            ],
            [
              127.12449,
              37.489513
            ],
            [
              127.124483,
              37.489485
            ],
            [
              127.124431,
              37.489548
            ],
            [
              127.124464,
              37.489543
            ],
            [
              127.124577,
              37.489605
            ],
            [
              127.124792,
              37.489723
            ],
            [
              127.124819,
              37.489738
            ],
            [
              127.124932,
              37.489766
            ],
            [
              127.125065,
              37.489798
            ],
            [
              127.125157,
              37.489821
            ],
            [
              127.125231,
              37.489839
            ]
          ]
        ]
      },
      "properties": {
        "layer": "지적",
        "label": "28-29도"
      }
    },
    {
      "type": "Feature",
      "geometry": {
        "type": "Polygon",
        "coordinates": [
          [
            [
              127.12449,
              37.489513
            ],
            [
              127.124581,
              37.489563
            ],
            [
              127.124695,
              37.489424
            ],
            [
              127.124584,
              37.489364
            ],
            [
              127.124483,
              37.489485
            ],
            [
              127.12449,
              37.489513
            ]
          ]
        ]
      },
      "properties": {
        "layer": "지적",
        "label": "28-23대"
      }
    },
    {
      "type": "Feature",
      "geometry": {
        "type": "Polygon",
        "coordinates": [
          [
            [
              127.125277,
              37.490327
            ],
            [
              127.125401,
              37.490176
            ],
            [
              127.125291,
              37.490116
            ],
            [
              127.125168,
              37.490267
            ],
            [
              127.125277,
              37.490327
            ]
          ]
        ]
      },
      "properties": {
        "layer": "지적",
        "label": "28-3대"
      }
    },
    {
      "type": "Feature",
      "geometry": {
        "type": "Polygon",
        "coordinates": [
          [
            [
              127.125314,
              37.48973
            ],
            [
              127.125332,
              37.489708
            ],
            [
              127.125407,
              37.489615
            ],
            [
              127.125274,
              37.489542
            ],
            [
              127.125179,
              37.489657
            ],
            [
              127.125314,
              37.48973
            ]
          ]
        ]
      },
      "properties": {
        "layer": "지적",
        "label": "28-36대"
      }
    },
    {
      "type": "Feature",
      "geometry": {
        "type": "Polygon",
        "coordinates": [
          [
            [
              127.125401,
              37.490176
            ],
            [
              127.125459,
              37.490105
            ],
            [
              127.125433,
              37.489947
            ],
            [
              127.125423,
              37.489887
            ],
            [
              127.125231,
              37.489839
            ],
            [
              127.125236,
              37.490085
            ],
            [
              127.125291,
              37.490116
            ],
            [
              127.125401,
              37.490176
            ]
          ]
        ]
      },
      "properties": {
        "layer": "지적",
        "label": "28-15대"
      }
    },
    {
      "type": "Feature",
      "geometry": {
        "type": "Polygon",
        "coordinates": [
          [
            [
              127.124376,
              37.489614
            ],
            [
              127.124509,
              37.489688
            ],
            [
              127.124577,
              37.489605
            ],
            [
              127.124464,
              37.489543
            ],
            [
              127.124431,
              37.489548
            ],
            [
              127.124376,
              37.489614
            ]
          ]
        ]
      },
      "properties": {
        "layer": "지적",
        "label": "28-10대"
      }
    },
    {
      "type": "Feature",
      "geometry": {
        "type": "Polygon",
        "coordinates": [
          [
            [
              127.124638,
              37.489758
            ],
            [
              127.124724,
              37.489805
            ],
            [
              127.124792,
              37.489723
            ],
            [
              127.124577,
              37.489605
            ],
            [
              127.124509,
              37.489688
            ],
            [
              127.124552,
              37.489711
            ],
            [
              127.124638,
              37.489758
            ]
          ]
        ]
      },
      "properties": {
        "layer": "지적",
        "label": "28-11대"
      }
    },
    {
      "type": "Feature",
      "geometry": {
        "type": "Polygon",
        "coordinates": [
          [
            [
              127.124942,
              37.489729
            ],
            [
              127.125038,
              37.489613
            ],
            [
              127.124991,
              37.489587
            ],
            [
              127.124971,
              37.489576
            ],
            [
              127.124919,
              37.489547
            ],
            [
              127.124809,
              37.489487
            ],
            [
              127.124799,
              37.489482
            ],
            [
              127.124699,
              37.489427
            ],
            [
              127.124695,
              37.489424
            ],
            [
              127.124581,
              37.489563
            ],
            [
              127.124686,
              37.48962
            ],
            [
              127.12484,
              37.489704
            ],
            [
              127.124861,
              37.489709
            ],
            [
              127.124884,
              37.489715
            ],
            [
              127.124942,
              37.489729
            ]
          ]
        ]
      },
      "properties": {
        "layer": "지적",
        "label": "28-21대"
      }
    },
    {
      "type": "Feature",
      "geometry": {
        "type": "Polygon",
        "coordinates": [
          [
            [
              127.124809,
              37.489487
            ],
            [
              127.124919,
              37.489547
            ],
            [
              127.125032,
              37.489409
            ],
            [
              127.124922,
              37.489349
            ],
            [
              127.124809,
              37.489487
            ]
          ]
        ]
      },
      "properties": {
        "layer": "지적",
        "label": "28-26대"
      }
    },
    {
      "type": "Feature",
      "geometry": {
        "type": "Polygon",
        "coordinates": [
          [
            [
              127.125038,
              37.489613
            ],
            [
              127.12504,
              37.489614
            ],
            [
              127.125153,
              37.489476
            ],
            [
              127.125032,
              37.489409
            ],
            [
              127.124919,
              37.489547
            ],
            [
              127.124971,
              37.489576
            ],
            [
              127.124991,
              37.489587
            ],
            [
              127.125038,
              37.489613
            ]
          ]
        ]
      },
      "properties": {
        "layer": "지적",
        "label": "28-27대"
      }
    },
    {
      "type": "Feature",
      "geometry": {
        "type": "Polygon",
        "coordinates": [
          [
            [
              127.124942,
              37.489729
            ],
            [
              127.12509,
              37.489766
            ],
            [
              127.125161,
              37.48968
            ],
            [
              127.12504,
              37.489614
            ],
            [
              127.125038,
              37.489613
            ],
            [
              127.124942,
              37.489729
            ]
          ]
        ]
      },
      "properties": {
        "layer": "지적",
        "label": "28-32대"
      }
    },
    {
      "type": "Feature",
      "geometry": {
        "type": "Polygon",
        "coordinates": [
          [
            [
              127.124957,
              37.490151
            ],
            [
              127.125062,
              37.490209
            ],
            [
              127.125186,
              37.490058
            ],
            [
              127.125091,
              37.490006
            ],
            [
              127.125081,
              37.490001
            ],
            [
              127.124957,
              37.490151
            ]
          ]
        ]
      },
      "properties": {
        "layer": "지적",
        "label": "28-5대"
      }
    },
    {
      "type": "Feature",
      "geometry": {
        "type": "Polygon",
        "coordinates": [
          [
            [
              127.125081,
              37.490001
            ],
            [
              127.125091,
              37.490006
            ],
            [
              127.125157,
              37.489821
            ],
            [
              127.125065,
              37.489798
            ],
            [
              127.125,
              37.489956
            ],
            [
              127.125081,
              37.490001
            ]
          ]
        ]
      },
      "properties": {
        "layer": "지적",
        "label": "28-14대"
      }
    },
    {
      "type": "Feature",
      "geometry": {
        "type": "Polygon",
        "coordinates": [
          [
            [
              127.125161,
              37.48968
            ],
            [
              127.125179,
              37.489657
            ],
            [
              127.125274,
              37.489542
            ],
            [
              127.125153,
              37.489476
            ],
            [
              127.12504,
              37.489614
            ],
            [
              127.125161,
              37.48968
            ]
          ]
        ]
      },
      "properties": {
        "layer": "지적",
        "label": "28-28대"
      }
    },
    {
      "type": "Feature",
      "geometry": {
        "type": "Polygon",
        "coordinates": [
          [
            [
              127.125062,
              37.490209
            ],
            [
              127.125168,
              37.490267
            ],
            [
              127.125291,
              37.490116
            ],
            [
              127.125236,
              37.490085
            ],
            [
              127.125186,
              37.490058
            ],
            [
              127.125062,
              37.490209
            ]
          ]
        ]
      },
      "properties": {
        "layer": "지적",
        "label": "28-4대"
      }
    },
    {
      "type": "Feature",
      "geometry": {
        "type": "Polygon",
        "coordinates": [
          [
            [
              127.125236,
              37.490085
            ],
            [
              127.125231,
              37.489839
            ],
            [
              127.125157,
              37.489821
            ],
            [
              127.125091,
              37.490006
            ],
            [
              127.125186,
              37.490058
            ],
            [
              127.125236,
              37.490085
            ]
          ]
        ]
      },
      "properties": {
        "layer": "지적",
        "label": "28-35대"
      }
    },
    {
      "type": "Feature",
      "geometry": {
        "type": "Polygon",
        "coordinates": [
          [
            [
              127.125252,
              37.489806
            ],
            [
              127.125314,
              37.48973
            ],
            [
              127.125179,
              37.489657
            ],
            [
              127.125161,
              37.48968
            ],
            [
              127.12509,
              37.489766
            ],
            [
              127.125252,
              37.489806
            ]
          ]
        ]
      },
      "properties": {
        "layer": "지적",
        "label": "28-19대"
      }
    },
    {
      "type": "Feature",
      "geometry": {
        "type": "Polygon",
        "coordinates": [
          [
            [
              127.125383,
              37.489838
            ],
            [
              127.125415,
              37.489828
            ],
            [
              127.125458,
              37.489777
            ],
            [
              127.125332,
              37.489708
            ],
            [
              127.125314,
              37.48973
            ],
            [
              127.125252,
              37.489806
            ],
            [
              127.125383,
              37.489838
            ]
          ]
        ]
      },
      "properties": {
        "layer": "지적",
        "label": "28-18대"
      }
    },
    {
      "type": "Feature",
      "geometry": {
        "type": "Polygon",
        "coordinates": [
          [
            [
              127.125362,
              37.490374
            ],
            [
              127.125418,
              37.490365
            ],
            [
              127.12552,
              37.490241
            ],
            [
              127.125578,
              37.49017
            ],
            [
              127.125459,
              37.490105
            ],
            [
              127.125401,
              37.490176
            ],
            [
              127.125277,
              37.490327
            ],
            [
              127.125362,
              37.490374
            ]
          ]
        ]
      },
      "properties": {
        "layer": "지적",
        "label": "28-2대"
      }
    },
    {
      "type": "Feature",
      "geometry": {
        "type": "Polygon",
        "coordinates": [
          [
            [
              127.125569,
              37.489928
            ],
            [
              127.125595,
              37.489897
            ],
            [
              127.125696,
              37.489774
            ],
            [
              127.125592,
              37.489717
            ],
            [
              127.125558,
              37.489722
            ],
            [
              127.125471,
              37.489829
            ],
            [
              127.125423,
              37.489887
            ],
            [
              127.125433,
              37.489947
            ],
            [
              127.125453,
              37.490069
            ],
            [
              127.125569,
              37.489928
            ]
          ]
        ]
      },
      "properties": {
        "layer": "지적",
        "label": "28-34대"
      }
    },
    {
      "type": "Feature",
      "geometry": {
        "type": "Polygon",
        "coordinates": [
          [
            [
              127.125458,
              37.489777
            ],
            [
              127.12552,
              37.489701
            ],
            [
              127.125513,
              37.489673
            ],
            [
              127.125407,
              37.489615
            ],
            [
              127.125332,
              37.489708
            ],
            [
              127.125458,
              37.489777
            ]
          ]
        ]
      },
      "properties": {
        "layer": "지적",
        "label": "28-17대"
      }
    },
    {
      "type": "Feature",
      "geometry": {
        "type": "Polygon",
        "coordinates": [
          [
            [
              127.125459,
              37.490105
            ],
            [
              127.125578,
              37.49017
            ],
            [
              127.125738,
              37.489975
            ],
            [
              127.125595,
              37.489897
            ],
            [
              127.125569,
              37.489928
            ],
            [
              127.125453,
              37.490069
            ],
            [
              127.125459,
              37.490105
            ]
          ]
        ]
      },
      "properties": {
        "layer": "지적",
        "label": "28-1대"
      }
    },
    {
      "type": "Feature",
      "geometry": {
        "type": "Polygon",
        "coordinates": [
          [
            [
              127.125738,
              37.489975
            ],
            [
              127.125816,
              37.489879
            ],
            [
              127.125805,
              37.489834
            ],
            [
              127.125696,
              37.489774
            ],
            [
              127.125595,
              37.489897
            ],
            [
              127.125738,
              37.489975
            ]
          ]
        ]
      },
      "properties": {
        "layer": "지적",
        "label": "28대"
      }
    },
    {
      "type": "Feature",
      "geometry": {
        "type": "Polygon",
        "coordinates": [
          [
            [
              127.124695,
              37.489424
            ],
            [
              127.124809,
              37.489487
            ],
            [
              127.124922,
              37.489349
            ],
            [
              127.124732,
              37.489245
            ],
            [
              127.124676,
              37.489254
            ],
            [
              127.124584,
              37.489364
            ],
            [
              127.124695,
              37.489424
            ]
          ]
        ]
      },
      "properties": {
        "layer": "지적",
        "label": "28-24대"
      }
    },
    {
      "type": "Feature",
      "geometry": {
        "type": "Polygon",
        "coordinates": [
          [
            [
              127.124429,
              37.489862
            ],
            [
              127.124552,
              37.489711
            ],
            [
              127.124376,
              37.489614
            ],
            [
              127.124676,
              37.489254
            ],
            [
              127.124732,
              37.489245
            ],
            [
              127.125805,
              37.489834
            ],
            [
              127.125816,
              37.489879
            ],
            [
              127.125418,
              37.490365
            ],
            [
              127.125362,
              37.490374
            ],
            [
              127.124429,
              37.489862
            ]
          ]
        ]
      },
      "properties": {
        "layer": "사업지",
        "label": ""
      }
    },
    {
      "type": "Feature",
      "geometry": {
        "type": "Point",
        "coordinates": [
          127.124706,
          37.489919
        ]
      },
      "properties": {
        "layer": "지적",
        "label": "28-7대"
      }
    },
    {
      "type": "Feature",
      "geometry": {
        "type": "Point",
        "coordinates": [
          127.124785,
          37.489792
        ]
      },
      "properties": {
        "layer": "지적",
        "label": "28-12대"
      }
    },
    {
      "type": "Feature",
      "geometry": {
        "type": "Point",
        "coordinates": [
          127.124885,
          37.490017
        ]
      },
      "properties": {
        "layer": "지적",
        "label": "28-6대"
      }
    },
    {
      "type": "Feature",
      "geometry": {
        "type": "Point",
        "coordinates": [
          127.124927,
          37.489822
        ]
      },
      "properties": {
        "layer": "지적",
        "label": "28-13대"
      }
    },
    {
      "type": "Feature",
      "geometry": {
        "type": "Point",
        "coordinates": [
          127.124487,
          37.489802
        ]
      },
      "properties": {
        "layer": "지적",
        "label": "28-31대"
      }
    },
    {
      "type": "Feature",
      "geometry": {
        "type": "Point",
        "coordinates": [
          127.124579,
          37.48985
        ]
      },
      "properties": {
        "layer": "지적",
        "label": "28-8대"
      }
    },
    {
      "type": "Feature",
      "geometry": {
        "type": "Point",
        "coordinates": [
          127.124928,
          37.489749
        ]
      },
      "properties": {
        "layer": "지적",
        "label": "28-29도"
      }
    },
    {
      "type": "Feature",
      "geometry": {
        "type": "Point",
        "coordinates": [
          127.124537,
          37.489455
        ]
      },
      "properties": {
        "layer": "지적",
        "label": "28-23대"
      }
    },
    {
      "type": "Feature",
      "geometry": {
        "type": "Point",
        "coordinates": [
          127.125244,
          37.490214
        ]
      },
      "properties": {
        "layer": "지적",
        "label": "28-3대"
      }
    },
    {
      "type": "Feature",
      "geometry": {
        "type": "Point",
        "coordinates": [
          127.125247,
          37.489629
        ]
      },
      "properties": {
        "layer": "지적",
        "label": "28-36대"
      }
    },
    {
      "type": "Feature",
      "geometry": {
        "type": "Point",
        "coordinates": [
          127.125293,
          37.489996
        ]
      },
      "properties": {
        "layer": "지적",
        "label": "28-15대"
      }
    },
    {
      "type": "Feature",
      "geometry": {
        "type": "Point",
        "coordinates": [
          127.12443,
          37.489603
        ]
      },
      "properties": {
        "layer": "지적",
        "label": "28-10대"
      }
    },
    {
      "type": "Feature",
      "geometry": {
        "type": "Point",
        "coordinates": [
          127.124604,
          37.489698
        ]
      },
      "properties": {
        "layer": "지적",
        "label": "28-11대"
      }
    },
    {
      "type": "Feature",
      "geometry": {
        "type": "Point",
        "coordinates": [
          127.124761,
          37.489577
        ]
      },
      "properties": {
        "layer": "지적",
        "label": "28-21대"
      }
    },
    {
      "type": "Feature",
      "geometry": {
        "type": "Point",
        "coordinates": [
          127.124874,
          37.489441
        ]
      },
      "properties": {
        "layer": "지적",
        "label": "28-26대"
      }
    },
    {
      "type": "Feature",
      "geometry": {
        "type": "Point",
        "coordinates": [
          127.124989,
          37.489504
        ]
      },
      "properties": {
        "layer": "지적",
        "label": "28-27대"
      }
    },
    {
      "type": "Feature",
      "geometry": {
        "type": "Point",
        "coordinates": [
          127.125007,
          37.489688
        ]
      },
      "properties": {
        "layer": "지적",
        "label": "28-32대"
      }
    },
    {
      "type": "Feature",
      "geometry": {
        "type": "Point",
        "coordinates": [
          127.125032,
          37.490097
        ]
      },
      "properties": {
        "layer": "지적",
        "label": "28-5대"
      }
    },
    {
      "type": "Feature",
      "geometry": {
        "type": "Point",
        "coordinates": [
          127.125038,
          37.489876
        ]
      },
      "properties": {
        "layer": "지적",
        "label": "28-14대"
      }
    },
    {
      "type": "Feature",
      "geometry": {
        "type": "Point",
        "coordinates": [
          127.12511,
          37.48957
        ]
      },
      "properties": {
        "layer": "지적",
        "label": "28-28대"
      }
    },
    {
      "type": "Feature",
      "geometry": {
        "type": "Point",
        "coordinates": [
          127.125137,
          37.490155
        ]
      },
      "properties": {
        "layer": "지적",
        "label": "28-4대"
      }
    },
    {
      "type": "Feature",
      "geometry": {
        "type": "Point",
        "coordinates": [
          127.125122,
          37.489973
        ]
      },
      "properties": {
        "layer": "지적",
        "label": "28-35대"
      }
    },
    {
      "type": "Feature",
      "geometry": {
        "type": "Point",
        "coordinates": [
          127.125158,
          37.489731
        ]
      },
      "properties": {
        "layer": "지적",
        "label": "28-19대"
      }
    },
    {
      "type": "Feature",
      "geometry": {
        "type": "Point",
        "coordinates": [
          127.125309,
          37.489773
        ]
      },
      "properties": {
        "layer": "지적",
        "label": "28-18대"
      }
    },
    {
      "type": "Feature",
      "geometry": {
        "type": "Point",
        "coordinates": [
          127.125388,
          37.490239
        ]
      },
      "properties": {
        "layer": "지적",
        "label": "28-2대"
      }
    },
    {
      "type": "Feature",
      "geometry": {
        "type": "Point",
        "coordinates": [
          127.125488,
          37.489857
        ]
      },
      "properties": {
        "layer": "지적",
        "label": "28-34대"
      }
    },
    {
      "type": "Feature",
      "geometry": {
        "type": "Point",
        "coordinates": [
          127.125385,
          37.489689
        ]
      },
      "properties": {
        "layer": "지적",
        "label": "28-17대"
      }
    },
    {
      "type": "Feature",
      "geometry": {
        "type": "Point",
        "coordinates": [
          127.125544,
          37.490025
        ]
      },
      "properties": {
        "layer": "지적",
        "label": "28-1대"
      }
    },
    {
      "type": "Feature",
      "geometry": {
        "type": "Point",
        "coordinates": [
          127.125688,
          37.489868
        ]
      },
      "properties": {
        "layer": "지적",
        "label": "28대"
      }
    },
    {
      "type": "Feature",
      "geometry": {
        "type": "Point",
        "coordinates": [
          127.124716,
          37.489354
        ]
      },
      "properties": {
        "layer": "지적",
        "label": "28-24대"
      }
    }
  ]
}